STARLINK-36545          
1 67505U 26012N   26041.25002315 -.01903486  00000+0 -29090-1 0  9998
2 67505  42.9997 110.2451 0001266 277.0580 136.5568 15.56993023  4666
STARLINK-36553          
1 67506U 26012P   26041.25002315 -.01901480  00000+0 -27602-1 0  9998
2 67506  42.9995 110.1643 0001355 277.3491 168.8985 15.58341920  4666
STARLINK-36521          
1 67507U 26012Q   26041.25002315 -.01899193  00000+0 -27616-1 0  9991
2 67507  42.9999 110.1529 0001402 282.1214 168.6141 15.58292593  4667
STARLINK-36526          
1 67508U 26012R   26041.25002315 -.01900047  00000+0 -27647-1 0  9997
2 67508  42.9995 110.1390 0001295 278.6251 177.4301 15.58278090  4663
STARLINK-36541          
1 67509U 26012S   26041.25002315 -.00070189  00000+0 -12004-2 0  9994
2 67509  43.0005 111.1536 0000453 237.9079 167.4761 15.50602946  4608
STARLINK-36549          
1 67510U 26012T   26041.25002315 -.01896516  00000+0 -29242-1 0  9998
2 67510  42.9993 109.9910 0001297 282.1534 230.8522 15.56744161  4602
STARLINK-36540          
1 67511U 26012U   26041.25002315  .00064016  00000+0  10901-2 0  9991
2 67511  43.0005 111.1314 0001449 262.5197 152.1553 15.50526275  4662
STARLINK-36538          
1 67512U 26012V   26041.25002315 -.01896926  00000+0 -32405-1 0  9990
2 67512  42.9998 110.3423 0001392 272.2018 101.5407 15.53997658  4667
STARLINK-36531          
1 67513U 26012W   26041.25002315 -.01896533  00000+0 -31356-1 0  9999
2 67513  42.9996 110.2795 0001598 274.7896 124.2769 15.54877144  4601
STARLINK-36530          
1 67514U 26012X   26041.25002315 -.01893845  00000+0 -32433-1 0  9990
2 67514  42.9994 110.3205 0001383 271.9194 110.3614 15.53924484  4603
STARLINK-36543          
1 67515U 26012Y   26041.25002315 -.01806208  00000+0 -31923-1 0  9991
2 67515  42.9998 110.3681 0001404 263.1222  99.8799 15.52897278  4609
STARLINK-36537          
1 67516U 26012Z   26041.25002315 -.01899585  00000+0 -31314-1 0  9996
2 67516  43.0001 110.2128 0001256 280.9090 144.2221 15.54965670  4606
