CCSDS_OMM_VERS = 2.0
CREATION_DATE  = 
ORIGINATOR     = 

OBJECT_NAME    = STARLINK-36545
OBJECT_ID      = 2026-012N
CENTER_NAME    = EARTH
REF_FRAME      = TEME
TIME_SYSTEM    = UTC
MEAN_ELEMENT_THEORY = SGP/SGP4

EPOCH          = 2026-02-10T06:00:02.000160
MEAN_MOTION    = 15.56993023
ECCENTRICITY   = .00012668
INCLINATION    = 42.9997
RA_OF_ASC_NODE = 110.2451
ARG_OF_PERICENTER = 277.0580
MEAN_ANOMALY   = 136.5568

EPHEMERIS_TYPE = 0
CLASSIFICATION_TYPE = U
NORAD_CAT_ID   = 67505
ELEMENT_SET_NO = 999
REV_AT_EPOCH   = 466
BSTAR          = -.29089614E-1
MEAN_MOTION_DOT = -.1903486E-1
MEAN_MOTION_DDOT = 0

CCSDS_OMM_VERS = 2.0
CREATION_DATE  = 
ORIGINATOR     = 

OBJECT_NAME    = STARLINK-36553
OBJECT_ID      = 2026-012P
CENTER_NAME    = EARTH
REF_FRAME      = TEME
TIME_SYSTEM    = UTC
MEAN_ELEMENT_THEORY = SGP/SGP4

EPOCH          = 2026-02-10T06:00:02.000160
MEAN_MOTION    = 15.58341920
ECCENTRICITY   = .00013552
INCLINATION    = 42.9995
RA_OF_ASC_NODE = 110.1643
ARG_OF_PERICENTER = 277.3491
MEAN_ANOMALY   = 168.8985

EPHEMERIS_TYPE = 0
CLASSIFICATION_TYPE = U
NORAD_CAT_ID   = 67506
ELEMENT_SET_NO = 999
REV_AT_EPOCH   = 466
BSTAR          = -.27602446E-1
MEAN_MOTION_DOT = -.190148E-1
MEAN_MOTION_DDOT = 0

CCSDS_OMM_VERS = 2.0
CREATION_DATE  = 
ORIGINATOR     = 

OBJECT_NAME    = STARLINK-36521
OBJECT_ID      = 2026-012Q
CENTER_NAME    = EARTH
REF_FRAME      = TEME
TIME_SYSTEM    = UTC
MEAN_ELEMENT_THEORY = SGP/SGP4

EPOCH          = 2026-02-10T06:00:02.000160
MEAN_MOTION    = 15.58292593
ECCENTRICITY   = .00014024
INCLINATION    = 42.9999
RA_OF_ASC_NODE = 110.1529
ARG_OF_PERICENTER = 282.1214
MEAN_ANOMALY   = 168.6141

EPHEMERIS_TYPE = 0
CLASSIFICATION_TYPE = U
NORAD_CAT_ID   = 67507
ELEMENT_SET_NO = 999
REV_AT_EPOCH   = 466
BSTAR          = -.27616302E-1
MEAN_MOTION_DOT = -.1899193E-1
MEAN_MOTION_DDOT = 0

CCSDS_OMM_VERS = 2.0
CREATION_DATE  = 
ORIGINATOR     = 

OBJECT_NAME    = STARLINK-36526
OBJECT_ID      = 2026-012R
CENTER_NAME    = EARTH
REF_FRAME      = TEME
TIME_SYSTEM    = UTC
MEAN_ELEMENT_THEORY = SGP/SGP4

EPOCH          = 2026-02-10T06:00:02.000160
MEAN_MOTION    = 15.58278090
ECCENTRICITY   = .00012951
INCLINATION    = 42.9995
RA_OF_ASC_NODE = 110.1390
ARG_OF_PERICENTER = 278.6251
MEAN_ANOMALY   = 177.4301

EPHEMERIS_TYPE = 0
CLASSIFICATION_TYPE = U
NORAD_CAT_ID   = 67508
ELEMENT_SET_NO = 999
REV_AT_EPOCH   = 466
BSTAR          = -.27646814E-1
MEAN_MOTION_DOT = -.1900047E-1
MEAN_MOTION_DDOT = 0

CCSDS_OMM_VERS = 2.0
CREATION_DATE  = 
ORIGINATOR     = 

OBJECT_NAME    = STARLINK-36541
OBJECT_ID      = 2026-012S
CENTER_NAME    = EARTH
REF_FRAME      = TEME
TIME_SYSTEM    = UTC
MEAN_ELEMENT_THEORY = SGP/SGP4

EPOCH          = 2026-02-10T06:00:02.000160
MEAN_MOTION    = 15.50602946
ECCENTRICITY   = .00004538
INCLINATION    = 43.0005
RA_OF_ASC_NODE = 111.1536
ARG_OF_PERICENTER = 237.9079
MEAN_ANOMALY   = 167.4761

EPHEMERIS_TYPE = 0
CLASSIFICATION_TYPE = U
NORAD_CAT_ID   = 67509
ELEMENT_SET_NO = 999
REV_AT_EPOCH   = 460
BSTAR          = -.12003897E-2
MEAN_MOTION_DOT = -.70189E-3
MEAN_MOTION_DDOT = 0

CCSDS_OMM_VERS = 2.0
CREATION_DATE  = 
ORIGINATOR     = 

OBJECT_NAME    = STARLINK-36549
OBJECT_ID      = 2026-012T
CENTER_NAME    = EARTH
REF_FRAME      = TEME
TIME_SYSTEM    = UTC
MEAN_ELEMENT_THEORY = SGP/SGP4

EPOCH          = 2026-02-10T06:00:02.000160
MEAN_MOTION    = 15.56744161
ECCENTRICITY   = .00012976
INCLINATION    = 42.9993
RA_OF_ASC_NODE = 109.9910
ARG_OF_PERICENTER = 282.1534
MEAN_ANOMALY   = 230.8522

EPHEMERIS_TYPE = 0
CLASSIFICATION_TYPE = U
NORAD_CAT_ID   = 67510
ELEMENT_SET_NO = 999
REV_AT_EPOCH   = 460
BSTAR          = -.29241962E-1
MEAN_MOTION_DOT = -.1896516E-1
MEAN_MOTION_DDOT = 0

CCSDS_OMM_VERS = 2.0
CREATION_DATE  = 
ORIGINATOR     = 

OBJECT_NAME    = STARLINK-36540
OBJECT_ID      = 2026-012U
CENTER_NAME    = EARTH
REF_FRAME      = TEME
TIME_SYSTEM    = UTC
MEAN_ELEMENT_THEORY = SGP/SGP4

EPOCH          = 2026-02-10T06:00:02.000160
MEAN_MOTION    = 15.50526275
ECCENTRICITY   = .00014493
INCLINATION    = 43.0005
RA_OF_ASC_NODE = 111.1314
ARG_OF_PERICENTER = 262.5197
MEAN_ANOMALY   = 152.1553

EPHEMERIS_TYPE = 0
CLASSIFICATION_TYPE = U
NORAD_CAT_ID   = 67511
ELEMENT_SET_NO = 999
REV_AT_EPOCH   = 466
BSTAR          = .10901424E-2
MEAN_MOTION_DOT = .64016E-3
MEAN_MOTION_DDOT = 0

CCSDS_OMM_VERS = 2.0
CREATION_DATE  = 
ORIGINATOR     = 

OBJECT_NAME    = STARLINK-36538
OBJECT_ID      = 2026-012V
CENTER_NAME    = EARTH
REF_FRAME      = TEME
TIME_SYSTEM    = UTC
MEAN_ELEMENT_THEORY = SGP/SGP4

EPOCH          = 2026-02-10T06:00:02.000160
MEAN_MOTION    = 15.53997658
ECCENTRICITY   = .00013924
INCLINATION    = 42.9998
RA_OF_ASC_NODE = 110.3423
ARG_OF_PERICENTER = 272.2018
MEAN_ANOMALY   = 101.5407

EPHEMERIS_TYPE = 0
CLASSIFICATION_TYPE = U
NORAD_CAT_ID   = 67512
ELEMENT_SET_NO = 999
REV_AT_EPOCH   = 466
BSTAR          = -.32404693E-1
MEAN_MOTION_DOT = -.1896926E-1
MEAN_MOTION_DDOT = 0

CCSDS_OMM_VERS = 2.0
CREATION_DATE  = 
ORIGINATOR     = 

OBJECT_NAME    = STARLINK-36531
OBJECT_ID      = 2026-012W
CENTER_NAME    = EARTH
REF_FRAME      = TEME
TIME_SYSTEM    = UTC
MEAN_ELEMENT_THEORY = SGP/SGP4

EPOCH          = 2026-02-10T06:00:02.000160
MEAN_MOTION    = 15.54877144
ECCENTRICITY   = .00015988
INCLINATION    = 42.9996
RA_OF_ASC_NODE = 110.2795
ARG_OF_PERICENTER = 274.7896
MEAN_ANOMALY   = 124.2769

EPHEMERIS_TYPE = 0
CLASSIFICATION_TYPE = U
NORAD_CAT_ID   = 67513
ELEMENT_SET_NO = 999
REV_AT_EPOCH   = 460
BSTAR          = -.31356015E-1
MEAN_MOTION_DOT = -.1896533E-1
MEAN_MOTION_DDOT = 0

CCSDS_OMM_VERS = 2.0
CREATION_DATE  = 
ORIGINATOR     = 

OBJECT_NAME    = STARLINK-36530
OBJECT_ID      = 2026-012X
CENTER_NAME    = EARTH
REF_FRAME      = TEME
TIME_SYSTEM    = UTC
MEAN_ELEMENT_THEORY = SGP/SGP4

EPOCH          = 2026-02-10T06:00:02.000160
MEAN_MOTION    = 15.53924484
ECCENTRICITY   = .00013835
INCLINATION    = 42.9994
RA_OF_ASC_NODE = 110.3205
ARG_OF_PERICENTER = 271.9194
MEAN_ANOMALY   = 110.3614

EPHEMERIS_TYPE = 0
CLASSIFICATION_TYPE = U
NORAD_CAT_ID   = 67514
ELEMENT_SET_NO = 999
REV_AT_EPOCH   = 460
BSTAR          = -.32432539E-1
MEAN_MOTION_DOT = -.1893845E-1
MEAN_MOTION_DDOT = 0

CCSDS_OMM_VERS = 2.0
CREATION_DATE  = 
ORIGINATOR     = 

OBJECT_NAME    = STARLINK-36543
OBJECT_ID      = 2026-012Y
CENTER_NAME    = EARTH
REF_FRAME      = TEME
TIME_SYSTEM    = UTC
MEAN_ELEMENT_THEORY = SGP/SGP4

EPOCH          = 2026-02-10T06:00:02.000160
MEAN_MOTION    = 15.52897278
ECCENTRICITY   = .00014041
INCLINATION    = 42.9998
RA_OF_ASC_NODE = 110.3681
ARG_OF_PERICENTER = 263.1222
MEAN_ANOMALY   = 99.8799

EPHEMERIS_TYPE = 0
CLASSIFICATION_TYPE = U
NORAD_CAT_ID   = 67515
ELEMENT_SET_NO = 999
REV_AT_EPOCH   = 460
BSTAR          = -.31922698E-1
MEAN_MOTION_DOT = -.1806208E-1
MEAN_MOTION_DDOT = 0

CCSDS_OMM_VERS = 2.0
CREATION_DATE  = 
ORIGINATOR     = 

OBJECT_NAME    = STARLINK-36537
OBJECT_ID      = 2026-012Z
CENTER_NAME    = EARTH
REF_FRAME      = TEME
TIME_SYSTEM    = UTC
MEAN_ELEMENT_THEORY = SGP/SGP4

EPOCH          = 2026-02-10T06:00:02.000160
MEAN_MOTION    = 15.54965670
ECCENTRICITY   = .00012563
INCLINATION    = 43.0001
RA_OF_ASC_NODE = 110.2128
ARG_OF_PERICENTER = 280.9090
MEAN_ANOMALY   = 144.2221

EPHEMERIS_TYPE = 0
CLASSIFICATION_TYPE = U
NORAD_CAT_ID   = 67516
ELEMENT_SET_NO = 999
REV_AT_EPOCH   = 460
BSTAR          = -.31314118E-1
MEAN_MOTION_DOT = -.1899585E-1
MEAN_MOTION_DDOT = 0

